ORBCOMM-X               
1 21576U 91050C   24137.44857355  .00001110  00000+0  34790-3 0  9992
2 21576  98.3908 205.1825 0002655 319.8683  40.2311 14.42505928724902
ORBCOMM FM01            
1 23545U 95017A   24137.51806772  .00014618  00000+0  19304-2 0  9992
2 23545  69.9686 335.6922 0007925 219.9777 140.0790 14.80093658553963
ORBCOMM FM02            
1 23546U 95017B   24137.88666715  .00014143  00000+0  18842-2 0  9993
2 23546  69.9709 354.2229 0009606 211.5108 148.5467 14.79722291553314
ORBCOMM FM08            
1 25112U 97084A   24137.62944155  .00006070  00000+0  18514-2 0  9995
2 25112  45.0132 106.8832 0007397  32.7211 327.4096 14.42595300384041
ORBCOMM FM10            
1 25113U 97084B   24137.29044364  .00005146  00000+0  15795-2 0  9993
2 25113  45.0146 110.3619 0006050 359.4458   0.6384 14.42501113559141
ORBCOMM FM11            
1 25114U 97084C   24137.65592801  .00004890  00000+0  15068-2 0  9996
2 25114  45.0130 108.6900 0006708   3.1241 356.9650 14.42378854384166
ORBCOMM FM12            
1 25115U 97084D   24137.75447296  .00005073  00000+0  15627-2 0  9990
2 25115  45.0139 107.9181 0005762   1.7541 358.3328 14.42346885383970
ORBCOMM FM09            
1 25116U 97084E   24137.62738812  .00005200  00000+0  16017-2 0  9990
2 25116  45.0142 109.2130 0007112 351.2957   8.7768 14.42310849384166
